ABS-6                   
1 25924U 99053A   26095.77650254 -.00000118  00000+0  00000+0 0  9995
2 25924   0.0497  90.7715 0002991 305.6905 236.1402  1.00271952 97115
SL-12 R/B(2)            
1 25927U 99053D   26091.09967550 -.00000138  00000+0  00000+0 0  9991
2 25927  17.7156 321.8544 5328357 266.3130 338.1771  1.89347273182965
BLOCK DM-SL R/B         
1 25938U 99056B   26095.73805059 -.00000077  00000+0  00000+0 0  9998
2 25938   1.0511 350.9584 6472060  85.7170 339.6216  2.12161866205273
UFO 10 (USA 146)        
1 25967U 99063A   26095.17614237 -.00000185  00000+0  00000+0 0  9992
2 25967   9.8503  27.5931 0004764 310.4565 255.9371  1.00276433 96618
XMM-NEWTON              
1 25989U 99066A   26095.54798203  .00000069  00000+0  00000+0 0  9996
2 25989  64.8516 283.9204 4698499  66.1986   0.0494  0.50130994 22640
ARIANE 5 R/B            
1 25990U 99066B   26094.08296049 -.00000142  00000+0  00000+0 0  9990
2 25990  71.2936 305.3156 6175032 111.4205 359.8105  0.55304997 24948
COSMOS 2368             
1 26042U 99073A   26093.81990515 -.00000824  00000+0  00000+0 0  9993
2 26042  66.9539 301.2480 6387633 163.3181 235.5471  2.00371871192436
SL-6 R/B(2)             
1 26045U 99073D   26095.61019212  .00021108  75186-6  11134-2 0  9996
2 26045  62.3174 133.1969 7473694 204.8002  82.9382  2.07662476195636
IABS R/B                
1 26054U 00001C   26094.81522754 -.00000106  00000+0  00000+0 0  9999
2 26054  14.1006   0.1338 0028811 333.2552  26.5616  1.01182457 25348
GALAXY 10R (G-10R)      
1 26056U 00002A   26095.46294547  .00000097  00000+0  00000+0 0  9998
2 26056  12.0606  31.7635 0002832 196.1943 354.5889  0.99638202 95600
GARUDA 1                
1 26089U 00011A   26095.53673238  .00000117  00000+0  00000+0 0  9993
2 26089   9.4772  64.7613 0003958 266.6499 276.9779  0.99909230 40934
SL-12 R/B(2)            
1 26090U 00011B   26095.60550701 -.00000214  00000+0  00000+0 0  9991
2 26090  16.1260 238.7241 5333820 302.2492 304.7782  1.90708158182111
SL-12 R/B(2)            
1 26101U 00013D   26095.22792610 -.00000250  00000+0  00000+0 0  9991
2 26101  14.3156   1.3736 0006739  61.5531 122.0971  1.00764662 95905
ASIASTAR                
1 26107U 00016A   26095.81179427 -.00000330  00000+0  00000+0 0  9999
2 26107   8.9630  58.9158 0005110 327.3356 205.1222  1.00271339 95190
INSAT-3B                
1 26108U 00016B   26095.60299368 -.00000093  00000+0  00000+0 0  9990
2 26108  10.7104  46.1482 0007282 245.3638 122.7276  0.99664063 50710
IMAGE                   
1 26113U 00017A   26093.56913830  .00000069  00000+0  23761-2 0  9991
2 26113  94.1690 314.3777 7488522 296.3083   7.4714  1.68665511160248
DELTA 2 R/B(2)          
1 26115U 00017C   26093.56796586  .00000034  00000+0 -35571-2 0  9995
2 26115  94.1120 314.5334 7511172 299.1560   6.9307  1.68221390159847
