[{"OBJECT_NAME":"ABS-6","OBJECT_ID":"1999-053A","EPOCH":"2026-04-05T18:38:09.819456","MEAN_MOTION":1.00271952,"ECCENTRICITY":0.0002991,"INCLINATION":0.0497,"RA_OF_ASC_NODE":90.7715,"ARG_OF_PERICENTER":305.6905,"MEAN_ANOMALY":236.1402,"EPHEMERIS_TYPE":0,"CLASSIFICATION_TYPE":"U","NORAD_CAT_ID":25924,"ELEMENT_SET_NO":999,"REV_AT_EPOCH":9711,"BSTAR":0,"MEAN_MOTION_DOT":-1.18e-6,"MEAN_MOTION_DDOT":0},{"OBJECT_NAME":"SL-12 R/B(2)","OBJECT_ID":"1999-053D","EPOCH":"2026-04-01T02:23:31.963200","MEAN_MOTION":1.89347273,"ECCENTRICITY":0.53283575,"INCLINATION":17.7156,"RA_OF_ASC_NODE":321.8544,"ARG_OF_PERICENTER":266.313,"MEAN_ANOMALY":338.1771,"EPHEMERIS_TYPE":0,"CLASSIFICATION_TYPE":"U","NORAD_CAT_ID":25927,"ELEMENT_SET_NO":999,"REV_AT_EPOCH":18296,"BSTAR":0,"MEAN_MOTION_DOT":-1.38e-6,"MEAN_MOTION_DDOT":0},{"OBJECT_NAME":"BLOCK DM-SL R/B","OBJECT_ID":"1999-056B","EPOCH":"2026-04-05T17:42:47.570976","MEAN_MOTION":2.12161866,"ECCENTRICITY":0.647206,"INCLINATION":1.0511,"RA_OF_ASC_NODE":350.9584,"ARG_OF_PERICENTER":85.717,"MEAN_ANOMALY":339.6216,"EPHEMERIS_TYPE":0,"CLASSIFICATION_TYPE":"U","NORAD_CAT_ID":25938,"ELEMENT_SET_NO":999,"REV_AT_EPOCH":20527,"BSTAR":0,"MEAN_MOTION_DOT":-7.7e-7,"MEAN_MOTION_DDOT":0},{"OBJECT_NAME":"UFO 10 (USA 146)","OBJECT_ID":"1999-063A","EPOCH":"2026-04-05T04:13:38.700768","MEAN_MOTION":1.00276433,"ECCENTRICITY":0.0004764,"INCLINATION":9.8503,"RA_OF_ASC_NODE":27.5931,"ARG_OF_PERICENTER":310.4565,"MEAN_ANOMALY":255.9371,"EPHEMERIS_TYPE":0,"CLASSIFICATION_TYPE":"U","NORAD_CAT_ID":25967,"ELEMENT_SET_NO":999,"REV_AT_EPOCH":9661,"BSTAR":0,"MEAN_MOTION_DOT":-1.85e-6,"MEAN_MOTION_DDOT":0},{"OBJECT_NAME":"XMM-NEWTON","OBJECT_ID":"1999-066A","EPOCH":"2026-04-05T13:09:05.647392","MEAN_MOTION":0.50130994,"ECCENTRICITY":0.4698499,"INCLINATION":64.8516,"RA_OF_ASC_NODE":283.9204,"ARG_OF_PERICENTER":66.1986,"MEAN_ANOMALY":0.0494,"EPHEMERIS_TYPE":0,"CLASSIFICATION_TYPE":"U","NORAD_CAT_ID":25989,"ELEMENT_SET_NO":999,"REV_AT_EPOCH":2264,"BSTAR":0,"MEAN_MOTION_DOT":6.9e-7,"MEAN_MOTION_DDOT":0},{"OBJECT_NAME":"ARIANE 5 R/B","OBJECT_ID":"1999-066B","EPOCH":"2026-04-04T01:59:27.786336","MEAN_MOTION":0.55304997,"ECCENTRICITY":0.61750328,"INCLINATION":71.2936,"RA_OF_ASC_NODE":305.3156,"ARG_OF_PERICENTER":111.4205,"MEAN_ANOMALY":359.8105,"EPHEMERIS_TYPE":0,"CLASSIFICATION_TYPE":"U","NORAD_CAT_ID":25990,"ELEMENT_SET_NO":999,"REV_AT_EPOCH":2494,"BSTAR":0,"MEAN_MOTION_DOT":-1.42e-6,"MEAN_MOTION_DDOT":0},{"OBJECT_NAME":"COSMOS 2368","OBJECT_ID":"1999-073A","EPOCH":"2026-04-03T19:40:39.804960","MEAN_MOTION":2.00371871,"ECCENTRICITY":0.63876335,"INCLINATION":66.9539,"RA_OF_ASC_NODE":301.248,"ARG_OF_PERICENTER":163.3181,"MEAN_ANOMALY":235.5471,"EPHEMERIS_TYPE":0,"CLASSIFICATION_TYPE":"U","NORAD_CAT_ID":26042,"ELEMENT_SET_NO":999,"REV_AT_EPOCH":19243,"BSTAR":0,"MEAN_MOTION_DOT":-8.24e-6,"MEAN_MOTION_DDOT":0},{"OBJECT_NAME":"SL-6 R/B(2)","OBJECT_ID":"1999-073D","EPOCH":"2026-04-05T14:38:40.599168","MEAN_MOTION":2.07662476,"ECCENTRICITY":0.7473694,"INCLINATION":62.3174,"RA_OF_ASC_NODE":133.1969,"ARG_OF_PERICENTER":204.8002,"MEAN_ANOMALY":82.9382,"EPHEMERIS_TYPE":0,"CLASSIFICATION_TYPE":"U","NORAD_CAT_ID":26045,"ELEMENT_SET_NO":999,"REV_AT_EPOCH":19563,"BSTAR":0.0011134,"MEAN_MOTION_DOT":0.00021108,"MEAN_MOTION_DDOT":7.5186e-7},{"OBJECT_NAME":"IABS R/B","OBJECT_ID":"2000-001C","EPOCH":"2026-04-04T19:33:55.659456","MEAN_MOTION":1.01182457,"ECCENTRICITY":0.0028811,"INCLINATION":14.1006,"RA_OF_ASC_NODE":0.1338,"ARG_OF_PERICENTER":333.2552,"MEAN_ANOMALY":26.5616,"EPHEMERIS_TYPE":0,"CLASSIFICATION_TYPE":"U","NORAD_CAT_ID":26054,"ELEMENT_SET_NO":999,"REV_AT_EPOCH":2534,"BSTAR":0,"MEAN_MOTION_DOT":-1.06e-6,"MEAN_MOTION_DDOT":0},{"OBJECT_NAME":"GALAXY 10R (G-10R)","OBJECT_ID":"2000-002A","EPOCH":"2026-04-05T11:06:38.488608","MEAN_MOTION":0.99638202,"ECCENTRICITY":0.00028327,"INCLINATION":12.0606,"RA_OF_ASC_NODE":31.7635,"ARG_OF_PERICENTER":196.1943,"MEAN_ANOMALY":354.5889,"EPHEMERIS_TYPE":0,"CLASSIFICATION_TYPE":"U","NORAD_CAT_ID":26056,"ELEMENT_SET_NO":999,"REV_AT_EPOCH":9560,"BSTAR":0,"MEAN_MOTION_DOT":9.7e-7,"MEAN_MOTION_DDOT":0},{"OBJECT_NAME":"GARUDA 1","OBJECT_ID":"2000-011A","EPOCH":"2026-04-05T12:52:53.677632","MEAN_MOTION":0.9990923,"ECCENTRICITY":0.0003958,"INCLINATION":9.4772,"RA_OF_ASC_NODE":64.7613,"ARG_OF_PERICENTER":266.6499,"MEAN_ANOMALY":276.9779,"EPHEMERIS_TYPE":0,"CLASSIFICATION_TYPE":"U","NORAD_CAT_ID":26089,"ELEMENT_SET_NO":999,"REV_AT_EPOCH":4093,"BSTAR":0,"MEAN_MOTION_DOT":1.17e-6,"MEAN_MOTION_DDOT":0},{"OBJECT_NAME":"SL-12 R/B(2)","OBJECT_ID":"2000-011B","EPOCH":"2026-04-05T14:31:55.805664","MEAN_MOTION":1.90708158,"ECCENTRICITY":0.533382,"INCLINATION":16.126,"RA_OF_ASC_NODE":238.7241,"ARG_OF_PERICENTER":302.2492,"MEAN_ANOMALY":304.7782,"EPHEMERIS_TYPE":0,"CLASSIFICATION_TYPE":"U","NORAD_CAT_ID":26090,"ELEMENT_SET_NO":999,"REV_AT_EPOCH":18211,"BSTAR":0,"MEAN_MOTION_DOT":-2.14e-6,"MEAN_MOTION_DDOT":0},{"OBJECT_NAME":"SL-12 R/B(2)","OBJECT_ID":"2000-013D","EPOCH":"2026-04-05T05:28:12.815040","MEAN_MOTION":1.00764662,"ECCENTRICITY":0.0006739,"INCLINATION":14.3156,"RA_OF_ASC_NODE":1.3736,"ARG_OF_PERICENTER":61.5531,"MEAN_ANOMALY":122.0971,"EPHEMERIS_TYPE":0,"CLASSIFICATION_TYPE":"U","NORAD_CAT_ID":26101,"ELEMENT_SET_NO":999,"REV_AT_EPOCH":9590,"BSTAR":0,"MEAN_MOTION_DOT":-2.5e-6,"MEAN_MOTION_DDOT":0},{"OBJECT_NAME":"ASIASTAR","OBJECT_ID":"2000-016A","EPOCH":"2026-04-05T19:28:59.024928","MEAN_MOTION":1.00271339,"ECCENTRICITY":0.000511,"INCLINATION":8.963,"RA_OF_ASC_NODE":58.9158,"ARG_OF_PERICENTER":327.3356,"MEAN_ANOMALY":205.1222,"EPHEMERIS_TYPE":0,"CLASSIFICATION_TYPE":"U","NORAD_CAT_ID":26107,"ELEMENT_SET_NO":999,"REV_AT_EPOCH":9519,"BSTAR":0,"MEAN_MOTION_DOT":-3.3e-6,"MEAN_MOTION_DDOT":0},{"OBJECT_NAME":"INSAT-3B","OBJECT_ID":"2000-016B","EPOCH":"2026-04-05T14:28:18.653952","MEAN_MOTION":0.99664063,"ECCENTRICITY":0.0007282,"INCLINATION":10.7104,"RA_OF_ASC_NODE":46.1482,"ARG_OF_PERICENTER":245.3638,"MEAN_ANOMALY":122.7276,"EPHEMERIS_TYPE":0,"CLASSIFICATION_TYPE":"U","NORAD_CAT_ID":26108,"ELEMENT_SET_NO":999,"REV_AT_EPOCH":5071,"BSTAR":0,"MEAN_MOTION_DOT":-9.3e-7,"MEAN_MOTION_DDOT":0},{"OBJECT_NAME":"IMAGE","OBJECT_ID":"2000-017A","EPOCH":"2026-04-03T13:39:33.549120","MEAN_MOTION":1.68665511,"ECCENTRICITY":0.74885227,"INCLINATION":94.169,"RA_OF_ASC_NODE":314.3777,"ARG_OF_PERICENTER":296.3083,"MEAN_ANOMALY":7.4714,"EPHEMERIS_TYPE":0,"CLASSIFICATION_TYPE":"U","NORAD_CAT_ID":26113,"ELEMENT_SET_NO":999,"REV_AT_EPOCH":16024,"BSTAR":0.002376075,"MEAN_MOTION_DOT":6.9e-7,"MEAN_MOTION_DDOT":0},{"OBJECT_NAME":"DELTA 2 R/B(2)","OBJECT_ID":"2000-017C","EPOCH":"2026-04-03T13:37:52.250304","MEAN_MOTION":1.6822139,"ECCENTRICITY":0.7511172,"INCLINATION":94.112,"RA_OF_ASC_NODE":314.5334,"ARG_OF_PERICENTER":299.156,"MEAN_ANOMALY":6.9307,"EPHEMERIS_TYPE":0,"CLASSIFICATION_TYPE":"U","NORAD_CAT_ID":26115,"ELEMENT_SET_NO":999,"REV_AT_EPOCH":15984,"BSTAR":-0.0035571,"MEAN_MOTION_DOT":3.4e-7,"MEAN_MOTION_DDOT":0}]
